[{"OBJECT_NAME":"STARLINK-32687","OBJECT_ID":"2025-075T","EPOCH":"2026-03-09T13:01:13.308096","MEAN_MOTION":15.27591814,"ECCENTRICITY":0.0002249,"INCLINATION":42.9983,"RA_OF_ASC_NODE":271.5462,"ARG_OF_PERICENTER":304.0179,"MEAN_ANOMALY":56.0458,"EPHEMERIS_TYPE":0,"CLASSIFICATION_TYPE":"U","NORAD_CAT_ID":63565,"ELEMENT_SET_NO":999,"REV_AT_EPOCH":5191,"BSTAR":0.00082711081,"MEAN_MOTION_DOT":0.00022577,"MEAN_MOTION_DDOT":0},{"OBJECT_NAME":"CZ-4 DEB","OBJECT_ID":"2006-046L","EPOCH":"2026-03-09T05:26:57.251328","MEAN_MOTION":15.20206122,"ECCENTRICITY":0.00567956,"INCLINATION":97.8211,"RA_OF_ASC_NODE":163.0679,"ARG_OF_PERICENTER":229.3561,"MEAN_ANOMALY":130.2727,"EPHEMERIS_TYPE":0,"CLASSIFICATION_TYPE":"U","NORAD_CAT_ID":35378,"ELEMENT_SET_NO":999,"REV_AT_EPOCH":2541,"BSTAR":0.0021311714,"MEAN_MOTION_DOT":0.00048409,"MEAN_MOTION_DDOT":0}]
